[{"OBJECT_ID":"2012-023C","OBJECT_NAME":"ARIANE 5 R/B","NORAD_CAT_ID":"38333","OBJECT_TYPE":"ROCKET BODY","PERIOD":"607.246","INCLINATION":"1.6191","APOGEE":"34499.620","PERIGEE":"252.096","ECCENTRICITY":"0.7208793","MEAN_MOTION":"2.3713618","TLE_LINE1":"1 38333U 12023C   16238.69428862 +.00003248 +00000-0 +10000-2 0  9993","TLE_LINE2":"2 38333 001.6191 097.6806 7208793 053.7329 353.2781 02.37136180036426","LAUNCH_DATE":"2012-05-15","LAUNCH_SITE":"FRENCH GUIANA","OWNER":"FRANCE","ORBIT_TYPE":"Highly Elliptical Orbit","OPERATIONAL_STATUS":"N/A, derelict rocket body","satInfo":{"lng":70.68039190301575,"lat":2.3734362120413266,"elevation":-7.972172814775214,"azimuth":244.31960809698427,"range":35378.3601888338,"height":28688.356271369674,"velocity":2.3570809240063015},"x":227,"y":-78,"dx":0.7798104453781103,"dy":-2.2243484780028497},{"OBJECT_ID":"2012-023D","OBJECT_NAME":"ARIANE 5 DEB (SYLDA)","NORAD_CAT_ID":"38334","OBJECT_TYPE":"DEBRIS","PERIOD":"426.178","INCLINATION":"1.5583","APOGEE":"24507.894","PERIGEE":"254.813","ECCENTRICITY":"0.6464217","MEAN_MOTION":"3.37886831","TLE_LINE1":"1 38334U 12023D   16239.45620165  .00023089  00000-0  38174-2 0  9996","TLE_LINE2":"2 38334   1.5583 277.4078 6464217  54.0688 349.8885  3.37886831 44102","LAUNCH_DATE":"2012-05-15","LAUNCH_SITE":"FRENCH GUIANA","OWNER":"FRANCE","ORBIT_TYPE":"Highly Elliptical Orbit","OPERATIONAL_STATUS":"N/A, space debris","satInfo":{"lng":70.45627185854318,"lat":-0.30348359232582856,"elevation":-18.2314625947614,"azimuth":244.54372814145682,"range":20650.96735527743,"height":13236.434548254798,"velocity":4.117541722478701},"x":104,"y":-37,"dx":1.3774255280122532,"dy":-3.880315547881774},{"OBJECT_ID":"2012-026A","OBJECT_NAME":"NIMIQ 6","NORAD_CAT_ID":"38342","OBJECT_TYPE":"PAYLOAD","PERIOD":"1436.092","INCLINATION":"0.0608","APOGEE":"35794.565","PERIGEE":"35778.449","ECCENTRICITY":"0.0001911","MEAN_MOTION":"1.00272104","TLE_LINE1":"1 38342U 12026A   16239.32253819 -.00000202  00000-0  00000+0 0  9999","TLE_LINE2":"2 38342   0.0608 283.9555 0001911 240.2393 195.8037  1.00272104 15688","LAUNCH_DATE":"2012-05-17","LAUNCH_SITE":"TYURATAM MISSILE AND SPACE COMPLEX","OWNER":"CANADA","ORBIT_TYPE":"Geosynchronous","OPERATIONAL_STATUS":"Operational","satInfo":{"lng":-103.26123307681345,"lat":0.025593750163021105,"elevation":-8.547738864585853,"azimuth":58.261233076813426,"range":42643.87286819453,"height":35792.06750583239,"velocity":3.0745362152546662},"x":-292,"y":67,"dx":-0.7052716182223344,"dy":2.992551567382346},{"OBJECT_ID":"2012-028A","OBJECT_NAME":"CHINASAT 2A","NORAD_CAT_ID":"38352","OBJECT_TYPE":"PAYLOAD","PERIOD":"1436.112","INCLINATION":"0.0661","APOGEE":"35794.836","PERIGEE":"35778.965","ECCENTRICITY":"0.0001882","MEAN_MOTION":"1.00270699","TLE_LINE1":"1 38352U 12028A   16238.80260811 -.00000320 +00000-0 +00000-0 0  9996","TLE_LINE2":"2 38352 000.0661 278.8491 0001882 347.6479 095.1732 01.00270699015450","LAUNCH_DATE":"2012-05-26","LAUNCH_SITE":"Xichang Space Center, China","OWNER":"PEOPLES REPUBLIC OF CHINA","ORBIT_TYPE":"Geosynchronous","OPERATIONAL_STATUS":"Operational","satInfo":{"lng":52.19354741070906,"lat":0.7240466554910401,"elevation":-7.864305333371418,"azimuth":262.8064525892909,"range":42569.9451574213,"height":35794.79738339883,"velocity":3.0741797746434716},"x":237,"y":-180,"dx":1.884460016351335,"dy":-2.4288663474139764},{"OBJECT_ID":"2012-030A","OBJECT_NAME":"INTELSAT 19","NORAD_CAT_ID":"38356","OBJECT_TYPE":"PAYLOAD","PERIOD":"1436.088","INCLINATION":"0.0152","APOGEE":"35798.427","PERIGEE":"35774.435","ECCENTRICITY":"0.0002845","MEAN_MOTION":"1.00272376","TLE_LINE1":"1 38356U 12030A   16237.61303889 -.00000081 +00000-0 +00000-0 0  9998","TLE_LINE2":"2 38356 000.0152 280.8347 0002845 236.1796 202.9943 01.00272376014541","LAUNCH_DATE":"2012-06-01","LAUNCH_SITE":"SEA LAUNCH","OWNER":"INTERNATIONAL TELECOMMUNICATIONS SATELLITE ORGANIZATION (INTELSAT)","ORBIT_TYPE":"Geosynchronous","OPERATIONAL_STATUS":"Operational","satInfo":{"lng":62.8261812214008,"lat":0.4021164361090135,"elevation":-8.187471226930015,"azimuth":252.17381877859918,"range":42564.611414432824,"height":35753.666736582,"velocity":3.07579651679817},"x":266,"y":-134,"dx":1.4046900076398707,"dy":-2.7363059396172162},{"OBJECT_ID":"2012-030B","OBJECT_NAME":"BLOCK DM-SL R/B","NORAD_CAT_ID":"38357","OBJECT_TYPE":"ROCKET BODY","PERIOD":"639.048","INCLINATION":"0.6873","APOGEE":"35632.758","PERIGEE":"763.527","ECCENTRICITY":"0.7094083","MEAN_MOTION":"2.25334974","TLE_LINE1":"1 38357U 12030B   16238.58063311 -.00000034  00000-0  00000+0 0  9996","TLE_LINE2":"2 38357   0.6873 340.1994 7094083 197.8834 110.7311  2.25334974728384","LAUNCH_DATE":"2012-06-01","LAUNCH_SITE":"SEA LAUNCH","OWNER":"SEA LAUNCH DEMO","ORBIT_TYPE":"Highly Elliptical Orbit","OPERATIONAL_STATUS":"N/A, derelict rocket body","satInfo":{"lng":40.66170392064307,"lat":-0.007817510322258872,"elevation":-8.622638390865387,"azimuth":274.33829607935695,"range":42439.879901961925,"height":35582.05467878195,"velocity":1.6674767273777042},"x":194,"y":-221,"dx":1.2648978621304514,"dy":-1.0865137066434423},{"OBJECT_ID":"2012-035A","OBJECT_NAME":"ECHOSTAR 17","NORAD_CAT_ID":"38551","OBJECT_TYPE":"PAYLOAD","PERIOD":"1436.110","INCLINATION":"0.0108","APOGEE":"35794.708","PERIGEE":"35779.023","ECCENTRICITY":"0.000186","MEAN_MOTION":"1.00270825","TLE_LINE1":"1 38551U 12035A   16239.36688558 -.00000104  00000-0  00000+0 0  9998","TLE_LINE2":"2 38551   0.0108 116.8716 0001860  37.9667 205.1633  1.00270825 15210","LAUNCH_DATE":"2012-07-05","LAUNCH_SITE":"FRENCH GUIANA","OWNER":"UNITED STATES OF AMERICA","ORBIT_TYPE":"Geosynchronous","OPERATIONAL_STATUS":"Operational","satInfo":{"lng":-105.55215612921826,"lat":0.5414835871918227,"elevation":-8.044940916559879,"azimuth":60.552156129218226,"range":42580.01689664626,"height":35784.71394665396,"velocity":3.0747697428827054},"x":-289,"y":78,"dx":-0.8243932866514604,"dy":2.962192546184495},{"OBJECT_ID":"2012-035B","OBJECT_NAME":"METEOSAT 10 (MSG 3)","NORAD_CAT_ID":"38552","OBJECT_TYPE":"PAYLOAD","PERIOD":"1436.053","INCLINATION":"0.5199","APOGEE":"35795.696","PERIGEE":"35775.778","ECCENTRICITY":"0.0002362","MEAN_MOTION":"1.0027485","TLE_LINE1":"1 38552U 12035B   16239.06984174 -.00000031  00000-0  00000+0 0  9998","TLE_LINE2":"2 38552   0.5199  17.2110 0002362 198.6794 144.0876  1.00274850 15304","LAUNCH_DATE":"2012-07-05","LAUNCH_SITE":"FRENCH GUIANA","OWNER":"EUROPEAN ORGANIZATION FOR THE EXPLOITATION OF METEOROLOGICAL SATELLITES","ORBIT_TYPE":"Geosynchronous","OPERATIONAL_STATUS":"Operational","satInfo":{"lng":13.64611905792551,"lat":0.4593541843587037,"elevation":-8.12068529362997,"azimuth":301.3538809420745,"range":42611.589556968764,"height":35807.528780284265,"velocity":3.073614914063535},"x":71,"y":-285,"dx":2.9868511078258106,"dy":-0.7251407447065159},{"OBJECT_ID":"2012-036A","OBJECT_NAME":"SES 5","NORAD_CAT_ID":"38652","OBJECT_TYPE":"PAYLOAD","PERIOD":"1436.098","INCLINATION":"0.0505","APOGEE":"35797.578","PERIGEE":"35775.686","ECCENTRICITY":"0.0002596","MEAN_MOTION":"1.00271657","TLE_LINE1":"1 38652U 12036A   16238.14216155  .00000008  00000-0  00000+0 0  9998","TLE_LINE2":"2 38652   0.0505 277.5198 0002596 257.0127 215.4483  1.00271657 15148","LAUNCH_DATE":"2012-07-09","LAUNCH_SITE":"TYURATAM MISSILE AND SPACE COMPLEX","OWNER":"SOCIÉTÉ EUROPÉENNE DES SATELLITES","ORBIT_TYPE":"Geosynchronous","OPERATIONAL_STATUS":"Operational","satInfo":{"lng":8.433193764138451,"lat":1.991357043064409,"elevation":-6.62045032357395,"azimuth":306.5668062358615,"range":42438.92139947568,"height":35803.236425278985,"velocity":3.073705350775456},"x":44,"y":-290,"dx":3.0404710196774944,"dy":-0.4507777300255268},{"OBJECT_ID":"2012-040A","OBJECT_NAME":"TIANLIAN 1-03","NORAD_CAT_ID":"38730","OBJECT_TYPE":"PAYLOAD","PERIOD":"1436.061","INCLINATION":"0.144","APOGEE":"35799.547","PERIGEE":"35772.276","ECCENTRICITY":"0.0003234","MEAN_MOTION":"1.00274228","TLE_LINE1":"1 38730U 12040A   16239.18884021  .00000044  00000-0  00000+0 0  9998","TLE_LINE2":"2 38730   0.1440 270.4070 0003234 238.7950 264.1644  1.00274228 15074","LAUNCH_DATE":"2012-07-25","LAUNCH_SITE":"Xichang Space Center, China","OWNER":"PEOPLES REPUBLIC OF CHINA","ORBIT_TYPE":"Geosynchronous","OPERATIONAL_STATUS":"Operational","satInfo":{"lng":10.55942693332702,"lat":1.716161111120138,"elevation":-6.892180667299791,"azimuth":304.440573066673,"range":42461.1094846779,"height":35795.034492691695,"velocity":3.0739912830754474},"x":55,"y":-289,"dx":3.021934362159204,"dy":-0.5633250564507855},{"OBJECT_ID":"2012-043A","OBJECT_NAME":"INTELSAT 20","NORAD_CAT_ID":"38740","OBJECT_TYPE":"PAYLOAD","PERIOD":"1436.093","INCLINATION":"0.0126","APOGEE":"35787.841","PERIGEE":"35785.210","ECCENTRICITY":"3.12e-05","MEAN_MOTION":"1.00272039","TLE_LINE1":"1 38740U 12043A   16236.88585002 -.00000048 +00000-0 +00000-0 0  9999","TLE_LINE2":"2 38740 000.0126 127.8714 0000312 002.8563 229.2719 01.00272039014835","LAUNCH_DATE":"2012-08-02","LAUNCH_SITE":"FRENCH GUIANA","OWNER":"INTERNATIONAL TELECOMMUNICATIONS SATELLITE ORGANIZATION (INTELSAT)","ORBIT_TYPE":"Geosynchronous","OPERATIONAL_STATUS":"Operational","satInfo":{"lng":81.86902587386878,"lat":-0.6055329342112679,"elevation":-9.164900128767462,"azimuth":233.1309741261312,"range":42707.38982763635,"height":35786.40368958016,"velocity":3.07472613861162},"x":297,"y":-42,"dx":0.43487825319290724,"dy":-3.0438169676183566}]